[{"OBJECT_NAME":"YAOGAN-30 06A","OBJECT_ID":"2019-045A","EPOCH":"2026-03-09T19:51:27.981216","MEAN_MOTION":15.02102304,"ECCENTRICITY":0.00031894,"INCLINATION":34.9928,"RA_OF_ASC_NODE":215.4318,"ARG_OF_PERICENTER":139.0512,"MEAN_ANOMALY":221.0436,"EPHEMERIS_TYPE":0,"CLASSIFICATION_TYPE":"U","NORAD_CAT_ID":44449,"ELEMENT_SET_NO":999,"REV_AT_EPOCH":36166,"BSTAR":0.00032896599,"MEAN_MOTION_DOT":4.384e-5,"MEAN_MOTION_DDOT":0},{"OBJECT_NAME":"STARLINK-5334","OBJECT_ID":"2023-065G","EPOCH":"2026-03-09T10:15:42.668352","MEAN_MOTION":15.02535538,"ECCENTRICITY":8.835e-5,"INCLINATION":43.002,"RA_OF_ASC_NODE":211.9072,"ARG_OF_PERICENTER":244.2846,"MEAN_ANOMALY":115.7905,"EPHEMERIS_TYPE":0,"CLASSIFICATION_TYPE":"U","NORAD_CAT_ID":56509,"ELEMENT_SET_NO":999,"REV_AT_EPOCH":15658,"BSTAR":1.4867582e-5,"MEAN_MOTION_DOT":-3.0e-8,"MEAN_MOTION_DDOT":0}]
