YAOGAN-30 06A           
1 44449U 19045A   26068.82740719  .00004384  00000+0  32897-3 0  9994
2 44449  34.9928 215.4318 0003189 139.0512 221.0436 15.02102304361666
STARLINK-5334           
1 56509U 23065G   26068.42757718 -.00000003  00000+0  14868-4 0  9998
2 56509  43.0020 211.9072 0000883 244.2846 115.7905 15.02535538156587
